43072,IRIDIUM 116,2017,100.4,860.0,+,86.4,Active,1,LEO,USA,USA,Commercial/Government,Communications,Falcon,1 43072U 17083C   25007.71850872  .00000226  00000+0  73640-4 0  9990,2 43072  86.3991 181.6198 0002143  95.8194 264.3246 14.34217880368859,14.3421788,0.0002143,LEO
43073,IRIDIUM 130,2017,100.4,860.0,+,86.4,Active,1,LEO,USA,USA,Commercial/Government,Communications,Falcon,1 43073U 17083D   25007.75656331  .00000017  00000+0 -11686-5 0  9991,2 43073  86.4005 181.8279 0001809  97.6368 262.5033 14.34217514368803,14.34217514,0.0001809,LEO
43074,IRIDIUM 151,2017,100.4,860.0,+,86.4,Active,1,LEO,USA,USA,Commercial/Government,Communications,Falcon,1 43074U 17083E   25008.01026718  .00000243  00000+0  79613-4 0  9995,2 43074  86.3994 181.5439 0002117  91.6478 268.4961 14.34218084368868,14.34218084,0.0002117,LEO
43075,IRIDIUM 134,2017,100.4,860.0,+,86.4,Active,1,LEO,USA,USA,Commercial/Government,Communications,Falcon,1 43075U 17083F   25007.76925008  .00000105  00000+0  30300-4 0  9994,2 43075  86.3995 181.6455 0001976  96.5127 263.6294 14.34217746368798,14.34217746,0.0001976,LEO
43076,IRIDIUM 137,2017,100.4,860.0,+,86.4,Active,1,LEO,USA,USA,Commercial/Government,Communications,Falcon,1 43076U 17083G   25007.71216593  .00000208  00000+0  67381-4 0  9995,2 43076  86.3996 181.7511 0002535  95.0809 265.0676 14.34217277368853,14.34217277,0.0002535,LEO
43077,IRIDIUM 141,2017,100.4,860.0,+,86.4,Active,1,LEO,USA,USA,Commercial/Government,Communications,Falcon,1 43077U 17083H   25007.98489682 -.00000004  00000+0 -83664-5 0  9995,2 43077  86.3996 181.4982 0001597  86.0655 274.0723 14.34217301368894,14.34217301,0.0001597,LEO
43078,IRIDIUM 153,2017,100.4,860.0,+,86.4,Active,1,LEO,USA,USA,Commercial/Government,Communications,Falcon,1 43078U 17083J   25007.72777488  .00000766  00000+0  26637-3 0  9990,2 43078  86.4004 150.1325 0001502  76.2585 283.8778 14.34215065369961,14.34215065,0.0001502,LEO
43079,IRIDIUM 131,2017,100.4,860.0,+,86.4,Active,1,LEO,USA,USA,Commercial/Government,Communications,Falcon,1 43079U 17083K   25008.46059200  .00000226  00000+0  73577-4 0  9995,2 43079  86.3998 181.4502 0002040  87.6378 272.5051 14.34218806368897,14.34218806,0.000204,LEO
